STARLINK-3046
1 49169U 21082AR  26090.06459013 -.00038656  00000+0 -32604-2 0  9993
2 49169  69.9979 220.5739 0009061 230.0418 129.9946 14.98172091249672
STARLINK-5261
1 55276U 23010H   26090.90231124  .00045103  00000+0  37811-2 0  9994
2 55276  69.9988 328.5633 0003763 248.9167 111.1590 14.98148075176595
STARLINK-33977
1 64344U 25126A   26090.45398183  .00079473  00000+0  66280-2 0  9998
2 64344  70.0053 339.5227 0005174 318.1736  41.9027 14.98120082 45158
